{"type":"FeatureCollection","features":[{"type":"Feature","properties":{"Name":"Untitled Polygon","FolderPath":"Intervention_1.kml/Intervention","SymbolID":0,"AltMode":0,"Base":0.0,"Clamped":-1,"Extruded":0,"Snippet":"","PopupInfo":"","Shape_Leng":0.032681630556,"Shape_Area":4.21072737988e-05},"geometry":{"type":"Polygon","coordinates":[[[0.6116555780000681,5.782126671000071],[0.6116401180000253,5.794226424000044],[0.6148755450000749,5.796079639000027],[0.6149916840000742,5.7825957910000625],[0.6116555780000681,5.782126671000071]]]}}]}