{"type":"FeatureCollection","features":[{"type":"Feature","properties":{"Name":"Untitled Polygon","FolderPath":"conventionnn.kml","SymbolID":0,"AltMode":0,"Base":0.0,"Clamped":-1,"Extruded":0,"Snippet":"","PopupInfo":"","Shape_Leng":0.031196739489,"Shape_Area":4.20192589764e-05},"geometry":{"type":"Polygon","coordinates":[[[0.6059341230000541,5.780665094000028],[0.6059135680000622,5.791330357000049],[0.6094697920000272,5.793365557000072],[0.6095215870000743,5.780521934000035],[0.6059341230000541,5.780665094000028]]]}}]}